SWARM A                 
1 39452U 13067B   26157.95999024  .00012070  00000+0  20914-3 0  9996
2 39452  87.3327  60.0399 0003015  91.6019 268.5587 15.50747755704667
SWARM C                 
1 39453U 13067C   26157.95987914  .00011911  00000+0  20637-3 0  9997
2 39453  87.3326  58.6211 0002995  91.7869 268.3735 15.50749772704623
BRITE-CA1 (TORONTO)     
1 40020U 14033L   26157.64225058  .00000796  00000+0  12740-3 0  9998
2 40020  97.9728 286.7655 0077539 311.3532  48.1023 14.72662532640666
OCO 2                   
1 40059U 14035A   26157.92368808  .00000451  00000+0  11022-3 0  9994
2 40059  98.2015  99.3733 0001477  87.6493 272.4874 14.57102814634555
BRITE-PL2 (HEWELIUSZ)   
1 40119U 14049B   26157.19256091  .00003210  00000+0  30175-3 0  9991
2 40119  97.9087 269.1089 0015051 141.6770 218.5523 14.94554868639806
MMS 1                   
1 40482U 15011A   26158.33337963 -.00000173  00000+0  00000+0 0  9995
2 40482  72.1921 348.8986 8347378 167.1989  13.8418  0.28288055  1384
MMS 2                   
1 40483U 15011B   26158.33337963 -.00000173  00000+0  00000+0 0  9996
2 40483  72.1922 348.9008 8348253 167.2021  13.8300  0.28289941  1388
MMS 3                   
1 40484U 15011C   26158.33337963 -.00000173  00000+0  00000+0 0  9997
2 40484  72.1952 348.9053 8347353 167.1991  13.8267  0.28287901  1383
MMS 4                   
1 40485U 15011D   26158.33337963 -.00000173  00000+0  00000+0 0  9998
2 40485  72.1914 348.9011 8347052 167.2045  13.8148  0.28289748  1382
ASTROSAT                
1 40930U 15052A   26157.79856345  .00001709  00000+0  12619-3 0  9995
2 40930   5.9948 230.1407 0008537 248.8722 111.0493 14.82490249578288
DAMPE                   
1 41173U 15078A   26158.29775391  .00001494  00000+0  52776-4 0  9990
2 41173  97.4562 163.7168 0013640 107.4253 252.8480 15.30760041583034
PISAT                   
1 41784U 16059B   26157.79037896  .00001044  00000+0  18530-3 0  9993
2 41784  97.8178 158.6901 0027691 237.2056 122.6482 14.68965750518219
HXMT (HUIYAN)           
1 42758U 17034A   26158.26734233  .00005057  00000+0  25011-3 0  9991
2 42758  43.0130 238.2760 0030175  81.6094 278.8173 15.18405128496157
FLYING LAPTOP           
1 42831U 17042G   26158.31997583  .00004419  00000+0  34861-3 0  9991
2 42831  97.4653 314.2358 0019010 153.8139 206.4051 15.01081705484979
ZHANGHENG 1-01 (CSES-1) 
1 43194U 18015C   26158.33497208  .00007983  00000+0  36512-3 0  9990
2 43194  97.6868 323.7986 0017209 303.3954  56.5634 15.20686179463143
SALSAT                  
1 46495U 20068K   26157.74488443  .00010129  00000+0  35498-3 0  9991
2 46495  97.8851 160.1753 0009049 349.8452  10.2602 15.29647918313761
IXPE                    
1 49954U 21121A   26158.33337963  .00010975  00000+0  59705-3 0  9997
2 49954   0.2320  31.7807 0007601 289.0144 304.2638 15.10159674  5895
SMILE                   
1 69123U 26109A   26144.65318427 -.00001976  00000+0 -42379-3 0  9994
2 69123  70.0007 229.2745 0009123 259.5159 100.4951 14.57062785   802
