OBJECT_NAME,OBJECT_ID,EPOCH,MEAN_MOTION,ECCENTRICITY,INCLINATION,RA_OF_ASC_NODE,ARG_OF_PERICENTER,MEAN_ANOMALY,EPHEMERIS_TYPE,CLASSIFICATION_TYPE,NORAD_CAT_ID,ELEMENT_SET_NO,REV_AT_EPOCH,BSTAR,MEAN_MOTION_DOT,MEAN_MOTION_DDOT
SWARM A,2013-067B,2026-06-06T23:02:23.157600,15.50747755,.0003015,87.3327,60.0399,91.6019,268.5587,0,U,39452,999,70466,.20914276E-3,.1207E-3,0
SWARM C,2013-067C,2026-06-06T23:02:13.558560,15.50749772,.00029946,87.3326,58.6211,91.7869,268.3735,0,U,39453,999,70462,.206372E-3,.11911E-3,0
BRITE-CA1 (TORONTO),2014-033L,2026-06-06T15:24:50.450112,14.72662532,.0077539,97.9728,286.7655,311.3532,48.1023,0,U,40020,999,64066,.1274E-3,.796E-5,0
OCO 2,2014-035A,2026-06-06T22:10:06.650112,14.57102814,.00014773,98.2015,99.3733,87.6493,272.4874,0,U,40059,999,63455,.11022008E-3,.451E-5,0
BRITE-PL2 (HEWELIUSZ),2014-049B,2026-06-06T04:37:17.262624,14.94554868,.00150514,97.9087,269.1089,141.6770,218.5523,0,U,40119,999,63980,.30174932E-3,.321E-4,0
MMS 1,2015-011A,2026-06-07T08:00:04.000032,0.28288055,.83473784,72.1921,348.8986,167.1989,13.8418,0,U,40482,999,138,0,-.173E-5,0
MMS 2,2015-011B,2026-06-07T08:00:04.000032,0.28289941,.83482531,72.1922,348.9008,167.2021,13.8300,0,U,40483,999,138,0,-.173E-5,0
MMS 3,2015-011C,2026-06-07T08:00:04.000032,0.28287901,.83473539,72.1952,348.9053,167.1991,13.8267,0,U,40484,999,138,0,-.173E-5,0
MMS 4,2015-011D,2026-06-07T08:00:04.000032,0.28289748,.8347052,72.1914,348.9011,167.2045,13.8148,0,U,40485,999,138,0,-.173E-5,0
ASTROSAT,2015-052A,2026-06-06T19:09:55.882080,14.82490249,.00085375,5.9948,230.1407,248.8722,111.0493,0,U,40930,999,57828,.12619179E-3,.1709E-4,0
DAMPE,2015-078A,2026-06-07T07:08:45.937824,15.30760041,.00136409,97.4562,163.7168,107.4253,252.8480,0,U,41173,999,58303,.52776076E-4,.1494E-4,0
PISAT,2016-059B,2026-06-06T18:58:08.742144,14.68965750,.00276911,97.8178,158.6901,237.2056,122.6482,0,U,41784,999,51821,.18529938E-3,.1044E-4,0
HXMT (HUIYAN),2017-034A,2026-06-07T06:24:58.377312,15.18405128,.00301751,43.0130,238.2760,81.6094,278.8173,0,U,42758,999,49615,.25010583E-3,.5057E-4,0
FLYING LAPTOP,2017-042G,2026-06-07T07:40:45.911712,15.01081705,.00190102,97.4653,314.2358,153.8139,206.4051,0,U,42831,999,48497,.34860958E-3,.4419E-4,0
ZHANGHENG 1-01 (CSES-1),2018-015C,2026-06-07T08:02:21.587712,15.20686179,.00172093,97.6868,323.7986,303.3954,56.5634,0,U,43194,999,46314,.36511806E-3,.7983E-4,0
SALSAT,2020-068K,2026-06-06T17:52:38.014752,15.29647918,.00090499,97.8851,160.1753,349.8452,10.2602,0,U,46495,999,31376,.35497906E-3,.10129E-3,0
IXPE,2021-121A,2026-06-07T08:00:04.000032,15.10159674,.00076014,0.2320,31.7807,289.0144,304.2638,0,U,49954,999,589,.5970477E-3,.10975E-3,0
SMILE,2026-109A,2026-05-24T15:40:35.120928,14.57062785,.00091232,70.0007,229.2745,259.5159,100.4951,0,U,69123,999,80,-.42378883E-3,-.1976E-4,0
